UNKNOWN                 
1 81812U          26046.23839717  .00006275  00000+0  43723-1 0  9997
2 81812 103.8090 331.1887 0249137 121.9079 240.6470 12.37901833548545
UNKNOWN                 
1 81816U          26047.59458613  .00001910  00000+0  14327-2 0  9993
2 81816  66.2387 131.9148 0175451 210.1656 148.9226 13.89687384618496
UNKNOWN                 
1 81819U          26046.20380506  .00000939  00000+0  66582-2 0  9998
2 81819 102.1672 149.2677 0030373 352.4780   7.5828 12.47806037556058
UNKNOWN                 
1 81824U          26048.28367171  .00005294  00000+0  18172-2 0  9998
2 81824  65.8426 155.4995 0046826 299.7533  59.8906 14.36253779634140
UNKNOWN                 
1 81833U          26047.31470779  .00000271  00000+0  95556-3 0  9992
2 81833  90.2455   4.3434 0024904 209.7249 150.2456 12.93754278460999
UNKNOWN                 
1 81838U          26026.69871619  .00010833  00000+0  23584-2 0  9999
2 81838  67.7595 148.7226 0041952 323.4616 103.9601 14.57662167639884
UNKNOWN                 
1 81844U          26048.50854061  .00006594  00000+0  23272-2 0  9995
2 81844  82.9092 227.7942 0060600 307.8739  51.6976 14.33592226632450
UNKNOWN                 
1 81845U          26040.48194302  .00003786  00000+0  41411-3 0  9996
2 81845  97.6768 230.3923 0088339 111.3986 279.6775 14.85561083658242
UNKNOWN                 
1 81864U          26033.13071996  .00002440  00000+0  94023-3 0  9997
2 81864  65.6733 306.7363 0766542 350.9348   7.8479 13.32666652557685
UNKNOWN                 
1 81865U          26048.25374758  .00001141  00000+0  92794-3 0  9999
2 81865  82.8080 337.3273 0060645 173.9444 340.0907 13.88228448617776
UNKNOWN                 
1 81893U          26047.41558796  .00001049  00000+0  11128-2 0  9991
2 81893 100.0540  39.3620 0021506  99.4520 260.9060 13.76863765613114
UNKNOWN                 
1 81899U          26047.19293739  .00001438  00000+0  34157-2 0  9994
2 81899 102.4113 165.7935 0173098  77.5841 284.4578 13.20403315587623
